{"type":"FeatureCollection","features":[{"type":"Feature","properties":{"NOMBRE_DPT":"ANTIOQUIA","DPTO":"05"},"geometry":{"type":"Polygon","coordinates":[[[-76.31,8.62],[-76.2,8.44],[-76.39,8.13],[-76.46,7.88],[-76.48,7.54],[-75.84,7.41],[-75.67,7.69],[-75.48,7.75],[-75.33,7.92],[-75.18,8.03],[-74.84,8.18],[-74.54,7.89],[-74.6,7.49],[-74.5,7.32],[-74.38,7.43],[-74.42,7.21],[-74.3,6.99],[-73.91,7.03],[-74.15,6.75],[-74.42,6.56],[-74.46,6.35],[-74.61,6.17],[-74.59,5.99],[-74.66,5.84],[-74.79,5.68],[-74.96,5.72],[-75.12,5.63],[-75.25,5.49],[-75.39,5.6],[-75.51,5.67],[-75.62,5.69],[-75.67,5.52],[-75.82,5.51],[-76.02,5.47],[-76.13,5.67],[-76.15,5.94],[-76.24,6.03],[-76.43,6.17],[-76.73,6.22],[-76.79,6.38],[-76.78,6.48],[-76.88,6.61],[-76.96,6.68],[-76.96,6.82],[-76.8,6.87],[-76.73,7.02],[-76.53,7.08],[-76.69,7.36],[-77.07,7.71],[-77.03,7.97],[-76.99,8.2],[-76.95,8.13],[-76.88,8.09],[-76.94,7.93],[-76.75,8.09],[-76.77,8.38],[-76.91,8.61],[-76.61,8.75],[-76.42,8.86],[-76.33,8.63],[-76.31,8.62]]]}},{"type":"Feature","properties":{"NOMBRE_DPT":"ATLANTICO","DPTO":"08"},"geometry":{"type":"Polygon","coordinates":[[[-74.87,10.36],[-74.9,10.31],[-74.96,10.27],[-74.98,10.31],[-75.01,10.33],[-75.04,10.35],[-75.07,10.37],[-75.1,10.39],[-75.12,10.4],[-75.15,10.4],[-75.17,10.43],[-75.2,10.46],[-75.23,10.48],[-75.26,10.49],[-75.27,10.53],[-75.28,10.57],[-75.27,10.6],[-75.27,10.64],[-75.26,10.69],[-75.25,10.72],[-75.25,10.76],[-75.24,10.79],[-75.21,10.81],[-75.17,10.82],[-75.12,10.86],[-75.07,10.88],[-75.05,10.91],[-75.01,10.95],[-74.98,10.97],[-74.97,10.99],[-74.93,11.02],[-74.89,11.06],[-74.86,11.08],[-74.84,11.05],[-74.82,11.02],[-74.79,10.99],[-74.77,10.95],[-74.77,10.93],[-74.76,10.9],[-74.73,10.89],[-74.74,10.86],[-74.75,10.83],[-74.75,10.8],[-74.75,10.77],[-74.75,10.74],[-74.74,10.72],[-74.75,10.63],[-74.75,10.6],[-74.74,10.57],[-74.76,10.54],[-74.81,10.48],[-74.83,10.44],[-74.84,10.41],[-74.87,10.36]]]}},{"type":"Feature","properties":{"NOMBRE_DPT":"SANTAFE DE BOGOTA D.C","DPTO":"11"},"geometry":{"type":"Polygon","coordinates":[[[-74.02,4.8],[-74.03,4.74],[-74.03,4.65],[-74.02,4.63],[-74.03,4.59],[-74.04,4.54],[-74.06,4.5],[-74.08,4.47],[-74.11,4.44],[-74.14,4.4],[-74.12,4.36],[-74.13,4.32],[-74.15,4.28],[-74.15,4.24],[-74.15,4.2],[-74.16,4.16],[-74.19,4.12],[-74.19,4.08],[-74.21,4.04],[-74.22,4],[-74.25,3.96],[-74.3,3.89],[-74.32,3.84],[-74.38,3.76],[-74.43,3.71],[-74.48,3.66],[-74.5,3.68],[-74.48,3.73],[-74.44,3.78],[-74.38,3.88],[-74.39,3.97],[-74.4,4.02],[-74.4,4.05],[-74.37,4.08],[-74.33,4.08],[-74.28,4.11],[-74.25,4.16],[-74.25,4.19],[-74.24,4.24],[-74.24,4.3],[-74.22,4.34],[-74.24,4.38],[-74.22,4.44],[-74.2,4.51],[-74.22,4.58],[-74.23,4.63],[-74.19,4.66],[-74.19,4.69],[-74.17,4.71],[-74.14,4.76],[-74.1,4.79],[-74.08,4.82],[-74.03,4.8],[-74.02,4.8]]]}},{"type":"Feature","properties":{"NOMBRE_DPT":"BOLIVAR","DPTO":"13"},"geometry":{"type":"Polygon","coordinates":[[[-75.16,10.42],[-75.06,10.36],[-74.95,10.27],[-74.92,10.11],[-74.82,9.98],[-74.88,9.86],[-74.82,9.74],[-74.78,9.6],[-74.82,9.46],[-74.66,9.38],[-74.52,9.22],[-74.38,9.21],[-74.3,9.15],[-74.14,9.01],[-74,8.98],[-73.86,8.84],[-73.84,8.64],[-73.78,8.44],[-73.77,8.23],[-73.82,8.11],[-73.89,7.98],[-73.83,7.73],[-73.9,7.51],[-73.96,7.28],[-74.35,6.99],[-74.43,7.17],[-74.39,7.34],[-74.4,7.46],[-74.48,7.32],[-74.59,7.39],[-74.57,7.6],[-74.53,7.82],[-74.73,8.1],[-74.79,8.21],[-74.65,8.31],[-74.57,8.41],[-74.6,8.57],[-74.61,8.73],[-74.67,8.97],[-74.85,9.1],[-74.93,9.28],[-74.97,9.46],[-75.11,9.57],[-75.3,9.68],[-75.39,9.63],[-75.34,9.84],[-75.48,9.91],[-75.53,10.04],[-75.54,10.1],[-75.55,10.15],[-75.58,10.21],[-75.62,10.23],[-75.53,10.33],[-75.52,10.46],[-75.49,10.48],[-75.48,10.58],[-75.36,10.69],[-75.27,10.78],[-75.27,10.63],[-75.25,10.49],[-75.16,10.42]]]}},{"type":"Feature","properties":{"NOMBRE_DPT":"BOYACA","DPTO":"15"},"geometry":{"type":"Polygon","coordinates":[[[-72.21,7.03],[-72.03,6.98],[-72.07,6.74],[-72.16,6.48],[-72.31,6.37],[-72.43,6.18],[-72.38,6],[-72.48,5.83],[-72.27,5.65],[-72.37,5.48],[-72.51,5.45],[-72.67,5.31],[-72.8,5.33],[-72.96,5.18],[-72.99,4.97],[-73.09,4.8],[-73.15,4.65],[-73.34,4.73],[-73.44,4.87],[-73.54,4.97],[-73.53,5.15],[-73.64,5.36],[-73.79,5.48],[-73.9,5.52],[-74.02,5.38],[-74.15,5.44],[-74.31,5.55],[-74.32,5.73],[-74.43,5.76],[-74.58,5.75],[-74.65,5.87],[-74.6,6.01],[-74.6,6.18],[-74.5,6.16],[-74.39,6.02],[-74.29,5.94],[-74.2,5.88],[-74.03,5.78],[-73.87,5.73],[-73.7,5.72],[-73.63,5.87],[-73.59,6],[-73.46,6.05],[-73.45,5.89],[-73.46,5.78],[-73.33,5.84],[-73.23,5.98],[-73.06,5.95],[-72.95,6.06],[-72.81,6.2],[-72.76,6.43],[-72.74,6.51],[-72.65,6.42],[-72.57,6.54],[-72.52,6.76],[-72.43,6.86],[-72.3,6.99],[-72.21,7.03]]]}},{"type":"Feature","properties":{"NOMBRE_DPT":"CALDAS","DPTO":"17"},"geometry":{"type":"Polygon","coordinates":[[[-74.69,5.75],[-74.69,5.72],[-74.66,5.64],[-74.67,5.53],[-74.69,5.42],[-74.71,5.37],[-74.76,5.28],[-74.85,5.29],[-74.95,5.28],[-75.05,5.27],[-75.14,5.18],[-75.21,5.15],[-75.3,5.13],[-75.36,5.07],[-75.35,4.97],[-75.35,4.88],[-75.41,4.82],[-75.47,4.86],[-75.6,4.92],[-75.69,4.96],[-75.76,4.95],[-75.8,5.02],[-75.84,4.95],[-75.86,4.92],[-75.92,4.96],[-75.95,5.08],[-75.89,5.11],[-75.85,5.2],[-75.84,5.28],[-75.76,5.25],[-75.7,5.28],[-75.71,5.33],[-75.78,5.38],[-75.87,5.36],[-75.89,5.41],[-75.86,5.5],[-75.77,5.53],[-75.72,5.5],[-75.65,5.52],[-75.62,5.57],[-75.62,5.69],[-75.58,5.72],[-75.54,5.67],[-75.45,5.69],[-75.4,5.63],[-75.37,5.57],[-75.32,5.46],[-75.22,5.52],[-75.15,5.57],[-75.12,5.63],[-75.05,5.67],[-74.98,5.71],[-74.88,5.73],[-74.83,5.69],[-74.75,5.7],[-74.69,5.75]]]}},{"type":"Feature","properties":{"NOMBRE_DPT":"CAQUETA","DPTO":"18"},"geometry":{"type":"Polygon","coordinates":[[[-74.69,2.5],[-74.63,2.15],[-74.47,1.81],[-74.03,1.59],[-73.65,1.51],[-73.45,1.26],[-73.26,1.01],[-73.01,0.92],[-72.9,1.05],[-72.84,1.16],[-72.67,1.16],[-72.42,0.95],[-72.34,0.84],[-72.24,0.73],[-72.13,0.69],[-72,0.6],[-71.95,0.51],[-71.85,0.34],[-71.77,0.26],[-71.63,0.2],[-71.52,0.1],[-71.58,0.01],[-71.86,-0.3],[-72.12,-0.39],[-72.35,-0.67],[-72.48,-0.62],[-72.62,-0.71],[-72.84,-0.63],[-73.03,-0.55],[-73.17,-0.64],[-73.35,-0.56],[-73.6,-0.54],[-73.71,-0.44],[-73.87,-0.43],[-74.12,-0.31],[-74.32,-0.24],[-74.46,-0.15],[-74.56,-0.15],[-74.7,-0.05],[-74.71,0.11],[-75.03,0.25],[-75.06,0.46],[-75.27,0.54],[-75.44,0.73],[-75.64,0.85],[-75.87,0.87],[-76.01,1.04],[-76.19,1.1],[-76.28,1.24],[-76.14,1.51],[-75.9,1.64],[-75.78,1.8],[-75.54,2.06],[-75.41,2.26],[-75.24,2.54],[-75.03,2.66],[-74.92,2.94],[-74.6,2.69],[-74.69,2.5]]]}},{"type":"Feature","properties":{"NOMBRE_DPT":"CAUCA","DPTO":"19"},"geometry":{"type":"MultiPolygon","coordinates":[[[[-78.21,2.98],[-78.25,2.96],[-78.27,2.98],[-78.27,3],[-78.25,3.02],[-78.23,3.05],[-78.21,3.05],[-78.19,3.05],[-78.21,3.02],[-78.21,2.98]]],[[[-76.39,3.28],[-76.18,3.23],[-76.1,3.13],[-76.05,3],[-75.99,2.8],[-75.89,2.57],[-75.87,2.44],[-76,2.48],[-76.17,2.38],[-76.32,2.38],[-76.41,2.29],[-76.37,2.18],[-76.43,2.07],[-76.6,2.13],[-76.62,2],[-76.58,1.86],[-76.47,1.67],[-76.29,1.51],[-76.23,1.46],[-76.28,1.22],[-76.21,1.13],[-76.11,1.04],[-76.2,1.01],[-76.43,0.97],[-76.59,1.12],[-76.66,1.41],[-76.76,1.32],[-76.83,1.34],[-76.82,1.52],[-76.94,1.65],[-77.11,1.68],[-77.27,1.66],[-77.33,1.74],[-77.26,1.91],[-77.29,2.07],[-77.37,2.14],[-77.49,2.2],[-77.75,2.25],[-77.91,2.49],[-78.02,2.66],[-77.95,2.72],[-77.87,2.72],[-77.82,2.81],[-77.71,2.9],[-77.69,3.01],[-77.7,3.07],[-77.63,3.13],[-77.52,3.23],[-77.39,3.19],[-77.25,3.13],[-77.07,3.08],[-76.91,3.08],[-76.73,3.1],[-76.59,3.1],[-76.52,3.17],[-76.51,3.27],[-76.43,3.3],[-76.39,3.28]]]]}},{"type":"Feature","properties":{"NOMBRE_DPT":"CESAR","DPTO":"20"},"geometry":{"type":"Polygon","coordinates":[[[-73.28,10.86],[-73.24,10.74],[-73.09,10.64],[-73.19,10.5],[-73.18,10.38],[-73,10.4],[-72.85,10.38],[-72.94,10.25],[-72.96,10.08],[-73.01,9.93],[-72.99,9.77],[-73.07,9.65],[-73.16,9.53],[-73.23,9.41],[-73.32,9.28],[-73.39,9.14],[-73.44,9.03],[-73.44,8.87],[-73.45,8.74],[-73.54,8.65],[-73.55,8.52],[-73.5,8.45],[-73.51,8.35],[-73.44,8.33],[-73.43,8.43],[-73.37,8.36],[-73.41,8.22],[-73.42,8.09],[-73.31,7.95],[-73.38,7.78],[-73.46,7.69],[-73.78,7.75],[-73.71,7.9],[-73.77,8.01],[-73.81,8.13],[-73.77,8.27],[-73.78,8.46],[-73.84,8.64],[-73.86,8.82],[-73.86,8.99],[-73.9,9.15],[-73.96,9.26],[-74.06,9.41],[-74.11,9.52],[-73.85,9.57],[-73.85,9.7],[-73.89,9.8],[-74.03,9.96],[-74.11,10.09],[-74.02,10.24],[-73.89,10.38],[-73.74,10.42],[-73.63,10.51],[-73.63,10.69],[-73.67,10.79],[-73.28,10.86]]]}},{"type":"Feature","properties":{"NOMBRE_DPT":"CORDOBA","DPTO":"23"},"geometry":{"type":"Polygon","coordinates":[[[-75.82,9.42],[-75.73,9.4],[-75.69,9.34],[-75.66,9.3],[-75.55,9.26],[-75.47,9.24],[-75.44,9.17],[-75.38,9.13],[-75.31,9.06],[-75.23,9],[-75.21,8.89],[-75.29,8.87],[-75.4,8.82],[-75.35,8.74],[-75.33,8.6],[-75.33,8.51],[-75.21,8.48],[-75.19,8.39],[-75.09,8.43],[-75.03,8.47],[-74.94,8.45],[-74.87,8.4],[-74.8,8.32],[-74.78,8.23],[-74.85,8.17],[-74.97,8.05],[-75.15,8.03],[-75.25,7.99],[-75.31,7.93],[-75.36,7.85],[-75.48,7.79],[-75.5,7.72],[-75.56,7.72],[-75.68,7.68],[-75.73,7.53],[-75.83,7.41],[-76.37,7.37],[-76.45,7.49],[-76.51,7.62],[-76.5,7.77],[-76.45,7.92],[-76.42,8.04],[-76.39,8.15],[-76.3,8.29],[-76.2,8.43],[-76.21,8.53],[-76.28,8.61],[-76.35,8.65],[-76.39,8.78],[-76.44,8.87],[-76.38,8.93],[-76.29,8.99],[-76.24,9.1],[-76.19,9.21],[-76.12,9.29],[-76.06,9.35],[-75.93,9.41],[-75.82,9.42]]]}},{"type":"Feature","properties":{"NOMBRE_DPT":"CUNDINAMARCA","DPTO":"25"},"geometry":{"type":"Polygon","coordinates":[[[-74.33,5.75],[-74.35,5.62],[-74.25,5.46],[-74.12,5.42],[-74.03,5.37],[-73.93,5.48],[-73.82,5.58],[-73.76,5.46],[-73.64,5.36],[-73.56,5.22],[-73.52,5.05],[-73.57,4.9],[-73.43,4.86],[-73.35,4.75],[-73.24,4.66],[-73.11,4.7],[-73.21,4.22],[-73.56,4.27],[-73.6,4.43],[-73.7,4.49],[-73.82,4.36],[-73.76,4.2],[-74.01,4.1],[-74.21,4.03],[-74.16,4.16],[-74.15,4.29],[-74.13,4.42],[-74.05,4.53],[-74.03,4.65],[-74.08,4.82],[-74.17,4.7],[-74.23,4.6],[-74.24,4.39],[-74.24,4.24],[-74.29,4.1],[-74.41,4.04],[-74.42,3.81],[-74.52,3.7],[-74.55,3.96],[-74.51,4.09],[-74.55,4.23],[-74.67,4.21],[-74.8,4.24],[-74.91,4.25],[-74.87,4.41],[-74.84,4.54],[-74.84,4.7],[-74.79,4.83],[-74.76,4.96],[-74.75,5.11],[-74.77,5.28],[-74.7,5.39],[-74.67,5.55],[-74.68,5.7],[-74.63,5.74],[-74.52,5.77],[-74.39,5.79],[-74.33,5.75]]]}},{"type":"Feature","properties":{"NOMBRE_DPT":"CHOCO","DPTO":"27"},"geometry":{"type":"Polygon","coordinates":[[[-77.02,8.27],[-76.97,8.07],[-77.11,7.85],[-76.86,7.59],[-76.56,7.26],[-76.55,6.98],[-76.83,7.01],[-76.84,6.86],[-76.98,6.8],[-76.95,6.69],[-76.89,6.61],[-76.78,6.48],[-76.78,6.38],[-76.74,6.24],[-76.5,6.17],[-76.26,6.1],[-76.14,5.98],[-76.13,5.75],[-76.07,5.54],[-76.15,5.41],[-76.33,5.29],[-76.29,5.14],[-76.17,4.97],[-76.31,4.8],[-76.45,4.64],[-76.54,4.42],[-76.56,4.24],[-76.5,4.13],[-76.74,4.01],[-77.01,4.11],[-77.23,4.17],[-77.35,4.19],[-77.54,4.16],[-77.56,4.23],[-77.48,4.27],[-77.39,4.44],[-77.37,4.67],[-77.33,4.76],[-77.42,4.95],[-77.42,5.19],[-77.41,5.3],[-77.43,5.45],[-77.56,5.53],[-77.41,5.62],[-77.31,5.83],[-77.41,6.05],[-77.44,6.27],[-77.36,6.5],[-77.47,6.71],[-77.6,6.81],[-77.72,7.05],[-77.92,7.25],[-77.72,7.54],[-77.56,7.52],[-77.29,7.85],[-77.25,8.12],[-77.41,8.42],[-77.35,8.62],[-77.14,8.4],[-77.02,8.27]]]}},{"type":"Feature","properties":{"NOMBRE_DPT":"HUILA","DPTO":"41"},"geometry":{"type":"Polygon","coordinates":[[[-74.64,3.27],[-74.73,3.12],[-74.85,3.05],[-74.94,2.9],[-75.08,2.76],[-75.02,2.61],[-75.21,2.49],[-75.29,2.44],[-75.37,2.29],[-75.47,2.19],[-75.52,2.1],[-75.61,1.96],[-75.76,1.83],[-75.83,1.75],[-75.89,1.65],[-76.02,1.53],[-76.14,1.51],[-76.27,1.51],[-76.42,1.61],[-76.47,1.77],[-76.61,1.86],[-76.62,1.99],[-76.64,2.1],[-76.53,2.12],[-76.41,2.09],[-76.37,2.18],[-76.41,2.26],[-76.32,2.32],[-76.28,2.4],[-76.15,2.38],[-76.03,2.49],[-75.93,2.42],[-75.85,2.47],[-75.9,2.61],[-75.99,2.79],[-76,2.97],[-75.89,2.99],[-75.82,3.05],[-75.75,3.08],[-75.6,3.14],[-75.6,3.22],[-75.47,3.32],[-75.36,3.39],[-75.28,3.38],[-75.2,3.38],[-75.09,3.43],[-75.06,3.33],[-75.07,3.27],[-74.96,3.27],[-74.85,3.36],[-74.8,3.45],[-74.76,3.57],[-74.6,3.72],[-74.51,3.76],[-74.52,3.64],[-74.61,3.49],[-74.63,3.29],[-74.64,3.27]]]}},{"type":"Feature","properties":{"NOMBRE_DPT":"LA GUAJIRA","DPTO":"44"},"geometry":{"type":"Polygon","coordinates":[[[-71.62,12.42],[-71.43,12.34],[-71.31,12.3],[-71.26,12.19],[-71.2,12.04],[-71.27,11.95],[-71.36,11.9],[-71.44,11.83],[-71.6,11.75],[-72.26,11.14],[-72.35,11.15],[-72.45,11.13],[-72.51,11.06],[-72.57,10.94],[-72.62,10.85],[-72.65,10.74],[-72.68,10.67],[-72.72,10.61],[-72.75,10.55],[-72.8,10.47],[-72.83,10.41],[-72.98,10.39],[-73.1,10.43],[-73.18,10.41],[-73.2,10.48],[-73.13,10.55],[-73.1,10.65],[-73.19,10.72],[-73.26,10.76],[-73.28,10.86],[-73.58,10.84],[-73.66,10.89],[-73.68,11.02],[-73.68,11.1],[-73.64,11.16],[-73.59,11.25],[-73.35,11.27],[-73.21,11.39],[-73.13,11.44],[-73.01,11.52],[-72.86,11.6],[-72.73,11.7],[-72.55,11.75],[-72.46,11.78],[-72.3,11.88],[-72.24,11.97],[-72.19,12.11],[-72.2,12.21],[-72.07,12.22],[-72.05,12.18],[-72.02,12.13],[-71.93,12.18],[-71.96,12.26],[-71.94,12.32],[-71.89,12.32],[-71.82,12.36],[-71.76,12.35],[-71.71,12.41],[-71.77,12.42],[-71.74,12.43],[-71.62,12.42]]]}},{"type":"Feature","properties":{"NOMBRE_DPT":"MAGDALENA","DPTO":"47"},"geometry":{"type":"Polygon","coordinates":[[[-74.09,11.33],[-73.98,11.31],[-73.78,11.25],[-73.62,11.19],[-73.68,11.11],[-73.68,11],[-73.65,10.84],[-73.69,10.76],[-73.64,10.67],[-73.63,10.53],[-73.73,10.44],[-73.8,10.39],[-73.97,10.32],[-74.04,10.22],[-74.11,10.09],[-74.06,9.99],[-73.95,9.86],[-73.86,9.76],[-73.83,9.66],[-73.86,9.58],[-74.09,9.55],[-74.1,9.44],[-74,9.34],[-73.99,9.19],[-73.89,9.11],[-73.86,8.99],[-73.99,8.98],[-74.08,9],[-74.18,9.05],[-74.33,9.15],[-74.36,9.21],[-74.46,9.24],[-74.57,9.28],[-74.68,9.4],[-74.82,9.45],[-74.8,9.56],[-74.83,9.66],[-74.82,9.76],[-74.87,9.85],[-74.87,9.95],[-74.82,10.04],[-74.95,10.12],[-74.91,10.26],[-74.83,10.43],[-74.74,10.56],[-74.74,10.71],[-74.75,10.79],[-74.73,10.88],[-74.77,10.94],[-74.84,11.04],[-74.73,11.04],[-74.5,10.96],[-74.36,10.97],[-74.26,11.05],[-74.27,11.21],[-74.2,11.3],[-74.13,11.33],[-74.09,11.33]]]}},{"type":"Feature","properties":{"NOMBRE_DPT":"META","DPTO":"50"},"geometry":{"type":"Polygon","coordinates":[[[-71.08,4.44],[-71.2,2.85],[-71.35,2.85],[-71.45,2.84],[-71.58,2.83],[-71.71,2.82],[-71.82,2.82],[-72.02,2.78],[-72.21,2.83],[-72.26,2.76],[-72.43,2.69],[-72.61,2.62],[-72.68,2.55],[-72.79,2.56],[-72.95,2.5],[-72.98,2.43],[-73.06,2.41],[-73.15,2.39],[-73.18,2.38],[-73.25,2.34],[-73.37,2.32],[-73.41,2.33],[-73.46,2.33],[-73.56,2.34],[-73.65,2.32],[-73.93,1.57],[-74.16,1.68],[-74.49,1.82],[-74.62,2],[-74.66,2.24],[-74.69,2.48],[-74.6,2.69],[-74.81,2.9],[-74.86,3.03],[-74.73,3.12],[-74.62,3.31],[-74.58,3.52],[-74.5,3.65],[-74.33,3.82],[-74.23,3.99],[-73.99,4.09],[-73.76,4.2],[-73.81,4.35],[-73.72,4.51],[-73.61,4.45],[-73.58,4.33],[-73.39,4.28],[-73.05,4.64],[-72.87,4.4],[-72.8,4.31],[-72.7,4.27],[-72.52,4.31],[-72.37,4.33],[-72.12,4.4],[-71.98,4.37],[-71.83,4.52],[-71.62,4.61],[-71.38,4.73],[-71.1,4.85],[-71.08,4.44]]]}},{"type":"Feature","properties":{"NOMBRE_DPT":"NARIÑO","DPTO":"52"},"geometry":{"type":"Polygon","coordinates":[[[-77.98,2.58],[-77.87,2.43],[-77.76,2.26],[-77.6,2.19],[-77.44,2.21],[-77.37,2.14],[-77.32,2.11],[-77.28,1.99],[-77.27,1.9],[-77.32,1.78],[-77.34,1.67],[-77.24,1.67],[-77.13,1.68],[-77.04,1.71],[-76.89,1.62],[-76.82,1.55],[-76.86,1.42],[-76.86,1.3],[-77.04,1.22],[-77.11,1.13],[-77.1,0.95],[-77.05,0.75],[-77.09,0.65],[-77.14,0.6],[-77.11,0.45],[-77.12,0.36],[-77.28,0.34],[-77.44,0.35],[-77.52,0.49],[-77.55,0.63],[-77.7,0.73],[-77.71,0.84],[-77.83,0.81],[-78.05,0.82],[-78.21,0.94],[-78.3,1.02],[-78.42,1.08],[-78.55,1.18],[-78.67,1.23],[-78.84,1.39],[-78.96,1.48],[-79.07,1.61],[-78.97,1.77],[-78.79,1.81],[-78.61,1.83],[-78.62,1.92],[-78.71,2.03],[-78.69,2.14],[-78.61,2.22],[-78.67,2.35],[-78.61,2.47],[-78.48,2.58],[-78.38,2.46],[-78.35,2.58],[-78.27,2.62],[-78.17,2.64],[-78.11,2.59],[-78.02,2.64],[-77.98,2.58]]]}},{"type":"Feature","properties":{"NOMBRE_DPT":"NORTE DE SANTANDER","DPTO":"54"},"geometry":{"type":"Polygon","coordinates":[[[-73.02,9.13],[-72.92,9.09],[-72.69,8.59],[-72.43,8.33],[-72.41,8.16],[-72.41,8.06],[-72.47,7.93],[-72.48,7.83],[-72.52,7.68],[-72.5,7.55],[-72.48,7.45],[-72.35,7.36],[-72.2,7.32],[-72.14,7.02],[-72.23,7.01],[-72.28,6.98],[-72.35,6.91],[-72.44,6.86],[-72.54,6.89],[-72.57,6.94],[-72.68,6.98],[-72.78,6.99],[-72.87,7.03],[-72.88,7.13],[-72.91,7.23],[-72.86,7.3],[-72.91,7.36],[-72.95,7.45],[-73.03,7.57],[-73.12,7.6],[-73.24,7.6],[-73.39,7.54],[-73.54,7.58],[-73.62,7.69],[-73.46,7.69],[-73.4,7.76],[-73.31,7.92],[-73.41,8.05],[-73.44,8.16],[-73.38,8.3],[-73.37,8.4],[-73.43,8.4],[-73.46,8.32],[-73.52,8.37],[-73.49,8.46],[-73.55,8.52],[-73.55,8.64],[-73.48,8.72],[-73.44,8.84],[-73.45,8.97],[-73.43,9.12],[-73.33,9.15],[-73.18,9.19],[-73.04,9.24],[-73.01,9.14],[-73.02,9.13]]]}},{"type":"Feature","properties":{"NOMBRE_DPT":"QUINDIO","DPTO":"63"},"geometry":{"type":"Polygon","coordinates":[[[-75.67,4.69],[-75.64,4.69],[-75.61,4.69],[-75.58,4.69],[-75.54,4.67],[-75.5,4.67],[-75.46,4.68],[-75.42,4.7],[-75.41,4.68],[-75.39,4.67],[-75.38,4.64],[-75.42,4.61],[-75.46,4.59],[-75.5,4.57],[-75.53,4.55],[-75.56,4.51],[-75.58,4.46],[-75.61,4.42],[-75.62,4.38],[-75.63,4.33],[-75.64,4.28],[-75.66,4.24],[-75.7,4.18],[-75.72,4.14],[-75.75,4.14],[-75.78,4.15],[-75.8,4.18],[-75.81,4.22],[-75.82,4.26],[-75.83,4.3],[-75.83,4.33],[-75.82,4.36],[-75.83,4.38],[-75.85,4.41],[-75.87,4.43],[-75.87,4.46],[-75.87,4.49],[-75.87,4.52],[-75.88,4.55],[-75.89,4.57],[-75.9,4.6],[-75.88,4.62],[-75.85,4.62],[-75.82,4.63],[-75.79,4.62],[-75.76,4.63],[-75.74,4.64],[-75.74,4.67],[-75.75,4.69],[-75.71,4.7],[-75.67,4.69]]]}},{"type":"Feature","properties":{"NOMBRE_DPT":"RISARALDA","DPTO":"66"},"geometry":{"type":"Polygon","coordinates":[[[-75.89,5.48],[-75.9,5.4],[-75.88,5.35],[-75.82,5.37],[-75.75,5.38],[-75.7,5.33],[-75.7,5.29],[-75.73,5.25],[-75.79,5.27],[-75.85,5.28],[-75.85,5.21],[-75.88,5.14],[-75.92,5.12],[-75.95,5.06],[-75.93,4.98],[-75.89,4.92],[-75.82,4.92],[-75.84,4.96],[-75.81,5.02],[-75.76,4.99],[-75.72,4.92],[-75.68,4.96],[-75.62,4.92],[-75.52,4.91],[-75.43,4.83],[-75.41,4.78],[-75.44,4.7],[-75.52,4.67],[-75.59,4.69],[-75.65,4.69],[-75.75,4.71],[-75.85,4.72],[-75.89,4.77],[-75.95,4.75],[-75.97,4.8],[-75.95,4.86],[-76.01,4.85],[-76.02,4.9],[-76.06,4.93],[-76.1,4.97],[-76.17,4.97],[-76.23,5],[-76.26,5.07],[-76.29,5.15],[-76.35,5.22],[-76.35,5.27],[-76.31,5.3],[-76.25,5.36],[-76.18,5.39],[-76.12,5.44],[-76.03,5.47],[-75.94,5.47],[-75.89,5.48]]]}},{"type":"Feature","properties":{"NOMBRE_DPT":"SANTANDER","DPTO":"68"},"geometry":{"type":"Polygon","coordinates":[[[-73.8,8.12],[-73.75,7.98],[-73.74,7.84],[-73.62,7.69],[-73.51,7.57],[-73.31,7.52],[-73.17,7.6],[-73.03,7.59],[-72.95,7.45],[-72.9,7.35],[-72.89,7.28],[-72.87,7.17],[-72.89,7.04],[-72.78,6.99],[-72.66,6.98],[-72.59,6.9],[-72.52,6.8],[-72.53,6.62],[-72.57,6.47],[-72.65,6.42],[-72.72,6.45],[-72.82,6.54],[-72.76,6.41],[-72.79,6.24],[-72.9,6.12],[-72.97,6.04],[-73.05,5.95],[-73.18,5.96],[-73.26,5.92],[-73.35,5.84],[-73.43,5.74],[-73.49,5.83],[-73.44,5.9],[-73.44,6.04],[-73.54,6.08],[-73.61,5.97],[-73.63,5.88],[-73.64,5.74],[-73.74,5.76],[-73.88,5.73],[-74.01,5.75],[-74.11,5.83],[-74.22,5.85],[-74.27,5.93],[-74.29,6.05],[-74.43,6.05],[-74.5,6.16],[-74.53,6.27],[-74.4,6.39],[-74.42,6.56],[-74.26,6.69],[-74.08,6.85],[-73.91,7.03],[-73.96,7.28],[-73.9,7.51],[-73.83,7.73],[-73.89,7.98],[-73.82,8.11],[-73.8,8.12]]]}},{"type":"Feature","properties":{"NOMBRE_DPT":"SUCRE","DPTO":"70"},"geometry":{"type":"Polygon","coordinates":[[[-75.48,9.88],[-75.35,9.87],[-75.35,9.76],[-75.39,9.65],[-75.36,9.66],[-75.27,9.68],[-75.15,9.6],[-75.04,9.55],[-74.98,9.48],[-74.94,9.42],[-74.93,9.28],[-74.91,9.19],[-74.84,9.07],[-74.74,9.01],[-74.6,8.86],[-74.6,8.74],[-74.62,8.66],[-74.59,8.55],[-74.57,8.47],[-74.58,8.38],[-74.63,8.31],[-74.71,8.29],[-74.79,8.28],[-74.81,8.37],[-74.89,8.43],[-74.96,8.46],[-75.04,8.48],[-75.09,8.43],[-75.18,8.38],[-75.2,8.45],[-75.3,8.48],[-75.32,8.56],[-75.35,8.66],[-75.34,8.75],[-75.4,8.84],[-75.29,8.87],[-75.21,8.88],[-75.22,8.97],[-75.26,9.06],[-75.33,9.1],[-75.42,9.13],[-75.47,9.18],[-75.48,9.24],[-75.55,9.26],[-75.64,9.3],[-75.69,9.33],[-75.69,9.39],[-75.64,9.45],[-75.58,9.58],[-75.6,9.66],[-75.69,9.71],[-75.63,9.8],[-75.6,9.93],[-75.55,10.04],[-75.54,10.1],[-75.51,10.1],[-75.5,10.02],[-75.47,9.95],[-75.48,9.88]]]}},{"type":"Feature","properties":{"NOMBRE_DPT":"TOLIMA","DPTO":"73"},"geometry":{"type":"Polygon","coordinates":[[[-74.84,5.28],[-74.76,5.21],[-74.75,5.07],[-74.76,4.96],[-74.76,4.87],[-74.81,4.75],[-74.83,4.65],[-74.84,4.53],[-74.85,4.43],[-74.91,4.31],[-74.85,4.27],[-74.78,4.24],[-74.68,4.2],[-74.59,4.25],[-74.52,4.16],[-74.53,4.06],[-74.55,3.96],[-74.57,3.79],[-74.69,3.65],[-74.81,3.5],[-74.81,3.4],[-74.9,3.31],[-75.02,3.26],[-75.1,3.3],[-75.05,3.38],[-75.16,3.41],[-75.23,3.39],[-75.3,3.37],[-75.41,3.36],[-75.55,3.27],[-75.6,3.17],[-75.67,3.13],[-75.78,3.05],[-75.87,3.02],[-75.95,2.97],[-76.06,3],[-76.1,3.11],[-76.1,3.23],[-76.04,3.4],[-76.01,3.59],[-75.96,3.74],[-75.85,3.93],[-75.72,3.99],[-75.71,4.15],[-75.63,4.31],[-75.58,4.46],[-75.49,4.57],[-75.38,4.66],[-75.41,4.73],[-75.35,4.85],[-75.36,4.95],[-75.36,5.08],[-75.26,5.13],[-75.16,5.15],[-75.06,5.27],[-74.92,5.28],[-74.84,5.28]]]}},{"type":"Feature","properties":{"NOMBRE_DPT":"VALLE DEL CAUCA","DPTO":"76"},"geometry":{"type":"Polygon","coordinates":[[[-76.08,4.97],[-76.01,4.89],[-75.95,4.86],[-75.96,4.76],[-75.88,4.72],[-75.75,4.68],[-75.79,4.62],[-75.9,4.61],[-75.87,4.51],[-75.85,4.41],[-75.83,4.31],[-75.79,4.17],[-75.73,4.09],[-75.76,3.93],[-75.94,3.8],[-75.99,3.65],[-76.02,3.43],[-76.09,3.24],[-76.21,3.23],[-76.37,3.28],[-76.49,3.31],[-76.51,3.25],[-76.53,3.16],[-76.59,3.1],[-76.68,3.11],[-76.84,3.08],[-76.99,3.1],[-77.16,3.1],[-77.29,3.16],[-77.4,3.21],[-77.53,3.26],[-77.48,3.36],[-77.38,3.41],[-77.33,3.57],[-77.19,3.7],[-77.13,3.81],[-77.15,3.89],[-77.32,3.91],[-77.3,3.97],[-77.26,4.06],[-77.35,4.06],[-77.46,4.01],[-77.43,4.15],[-77.33,4.18],[-77.28,4.2],[-77.15,4.15],[-76.98,4.12],[-76.8,3.99],[-76.63,4.04],[-76.5,4.13],[-76.49,4.19],[-76.57,4.32],[-76.55,4.42],[-76.49,4.56],[-76.41,4.7],[-76.34,4.78],[-76.23,4.85],[-76.14,4.96],[-76.08,4.97]]]}},{"type":"Feature","properties":{"NOMBRE_DPT":"ARAUCA","DPTO":"81"},"geometry":{"type":"Polygon","coordinates":[[[-70.7,7.06],[-70.62,7.05],[-70.56,7],[-70.45,6.97],[-70.32,6.91],[-70.21,6.95],[-69.45,6.07],[-69.48,6.02],[-69.62,5.99],[-69.77,6.01],[-69.86,6.01],[-69.92,6.06],[-70.01,6.11],[-70.11,6.18],[-70.2,6.24],[-70.35,6.25],[-70.46,6.23],[-70.52,6.21],[-70.61,6.2],[-70.74,6.19],[-70.83,6.2],[-70.93,6.19],[-71.06,6.22],[-71.17,6.24],[-71.26,6.23],[-71.34,6.21],[-71.42,6.2],[-71.48,6.18],[-71.56,6.17],[-71.66,6.2],[-71.8,6.17],[-71.94,6.13],[-72.01,6.11],[-72.11,6.07],[-72.19,6.05],[-72.3,6.13],[-72.36,6.18],[-72.41,6.27],[-72.33,6.34],[-72.32,6.42],[-72.23,6.41],[-72.16,6.5],[-72.13,6.63],[-72.08,6.72],[-72.05,6.81],[-72,6.9],[-71.92,6.99],[-71.8,7.04],[-71.74,7.02],[-71.68,7.01],[-71.63,7.02],[-71.54,7.01],[-71.43,7],[-71.33,7],[-71.25,6.99],[-71.11,6.96],[-71.01,6.98],[-70.88,7.04],[-70.72,7.07],[-70.7,7.06]]]}},{"type":"Feature","properties":{"NOMBRE_DPT":"CASANARE","DPTO":"85"},"geometry":{"type":"Polygon","coordinates":[[[-70.17,6.25],[-70.01,6.11],[-69.9,6.01],[-69.92,5.89],[-70.05,5.69],[-70.19,5.57],[-70.39,5.53],[-70.55,5.42],[-70.69,5.31],[-70.84,5.15],[-70.97,5.06],[-71.03,4.93],[-71.16,4.82],[-71.46,4.69],[-71.64,4.59],[-71.84,4.52],[-71.98,4.37],[-72.1,4.4],[-72.33,4.36],[-72.48,4.29],[-72.65,4.28],[-72.77,4.27],[-72.81,4.37],[-72.93,4.48],[-73.07,4.7],[-73.08,4.81],[-73.02,4.96],[-72.93,5.04],[-72.96,5.19],[-72.86,5.32],[-72.75,5.27],[-72.67,5.31],[-72.58,5.38],[-72.45,5.5],[-72.38,5.49],[-72.32,5.55],[-72.29,5.69],[-72.44,5.82],[-72.41,5.88],[-72.37,6.04],[-72.42,6.14],[-72.36,6.18],[-72.24,6.08],[-72.1,6.07],[-71.96,6.13],[-71.77,6.18],[-71.58,6.17],[-71.46,6.2],[-71.34,6.21],[-71.22,6.25],[-71.05,6.22],[-70.85,6.2],[-70.71,6.19],[-70.53,6.21],[-70.42,6.24],[-70.2,6.24],[-70.17,6.25]]]}},{"type":"Feature","properties":{"NOMBRE_DPT":"PUTUMAYO","DPTO":"86"},"geometry":{"type":"Polygon","coordinates":[[[-76.58,1.32],[-76.58,1.05],[-76.39,0.97],[-76.2,1.01],[-76.11,1.04],[-76.01,1.04],[-75.96,0.99],[-75.84,0.88],[-75.7,0.85],[-75.56,0.82],[-75.47,0.73],[-75.28,0.69],[-75.26,0.53],[-75.13,0.49],[-75.02,0.42],[-75,0.29],[-74.87,0.19],[-74.71,0.12],[-74.71,0.04],[-74.68,-0.07],[-74.62,-0.14],[-74.54,-0.16],[-74.45,-0.13],[-74.38,-0.15],[-74.32,-0.24],[-74.21,-0.3],[-74.1,-0.32],[-73.93,-0.41],[-74.45,-0.56],[-74.53,-0.49],[-74.62,-0.41],[-74.71,-0.36],[-74.8,-0.22],[-74.93,-0.22],[-75.03,-0.16],[-75.19,-0.06],[-75.29,-0.13],[-75.47,-0.07],[-75.64,0.06],[-75.85,0.06],[-75.98,0.2],[-76.08,0.31],[-76.16,0.36],[-76.3,0.4],[-76.43,0.38],[-76.59,0.22],[-76.77,0.28],[-76.86,0.25],[-77.01,0.29],[-77.11,0.38],[-77.15,0.53],[-77.11,0.64],[-77.05,0.75],[-77.09,0.96],[-77.11,1.19],[-76.92,1.27],[-76.77,1.31],[-76.69,1.43],[-76.58,1.32]]]}},{"type":"Feature","properties":{"NOMBRE_DPT":"AMAZONAS","DPTO":"91"},"geometry":{"type":"Polygon","coordinates":[[[-71.39,0.12],[-71.24,0.06],[-71.07,-0.06],[-70.95,-0.17],[-70.87,-0.37],[-70.62,-0.39],[-70.41,-0.5],[-70.21,-0.49],[-70.26,-0.74],[-70.28,-1.04],[-70.12,-1.1],[-70.03,-0.97],[-69.95,-1.09],[-69.76,-1.14],[-69.67,-1.16],[-69.49,-1.25],[-69.43,-1.23],[-69.47,-1.6],[-70.15,-4.04],[-70.34,-3.84],[-70.57,-3.88],[-70.12,-2.71],[-70.26,-2.6],[-70.45,-2.54],[-70.67,-2.44],[-71.01,-2.24],[-71.13,-2.38],[-71.37,-2.42],[-71.51,-2.36],[-71.68,-2.24],[-71.84,-2.25],[-71.99,-2.39],[-72.19,-2.47],[-72.4,-2.46],[-72.66,-2.48],[-72.85,-2.48],[-73.08,-2.42],[-73.15,-2.26],[-73.12,-1.95],[-73.27,-1.86],[-73.51,-1.79],[-73.51,-1.56],[-73.67,-1.31],[-73.9,-1.24],[-74.08,-1.06],[-74.31,-0.93],[-74.39,-0.75],[-73.79,-0.43],[-73.63,-0.47],[-73.42,-0.56],[-73.18,-0.64],[-73,-0.56],[-72.8,-0.6],[-72.56,-0.7],[-72.4,-0.64],[-72.19,-0.44],[-71.9,-0.3],[-71.57,0.02],[-71.41,0.14],[-71.39,0.12]]]}},{"type":"Feature","properties":{"NOMBRE_DPT":"GUAINIA","DPTO":"94"},"geometry":{"type":"Polygon","coordinates":[[[-67.69,3.86],[-67.49,3.67],[-67.34,3.39],[-67.43,3.2],[-67.6,2.72],[-67.41,2.51],[-67.22,2.3],[-67.13,2.05],[-67.06,1.8],[-66.95,1.48],[-66.9,1.21],[-67.11,1.39],[-67.32,1.85],[-67.59,2.01],[-67.85,1.71],[-68.13,1.87],[-68.28,1.8],[-68.21,1.68],[-69.47,1.71],[-69.66,1.69],[-69.92,1.69],[-70.17,1.82],[-70.13,1.94],[-70.07,2.09],[-70.04,2.23],[-70.19,2.2],[-70.32,2.18],[-70.47,2.21],[-70.58,2.25],[-70.76,2.5],[-70.42,2.79],[-70.29,2.97],[-70.25,3.1],[-70.14,3.16],[-70.17,3.3],[-70.01,3.33],[-69.89,3.37],[-69.87,3.48],[-69.85,3.5],[-69.73,3.51],[-69.62,3.55],[-69.49,3.63],[-69.29,3.65],[-69.24,3.64],[-69.13,3.62],[-68.97,3.64],[-68.86,3.64],[-68.73,3.72],[-68.58,3.74],[-68.49,3.78],[-68.41,3.84],[-68.34,3.93],[-68.22,3.95],[-68.1,3.9],[-68.02,3.95],[-67.89,3.87],[-67.73,3.97],[-67.69,3.86]]]}},{"type":"Feature","properties":{"NOMBRE_DPT":"GUAVIARE","DPTO":"95"},"geometry":{"type":"Polygon","coordinates":[[[-71.26,2.84],[-71.07,2.84],[-70.94,2.76],[-70.88,2.75],[-70.72,2.72],[-70.6,2.8],[-70.77,2.5],[-70.61,2.26],[-70.47,2.2],[-70.33,2.18],[-70.2,2.2],[-70.05,2.23],[-70.06,2.1],[-70.2,1.99],[-70.36,1.96],[-70.5,1.91],[-70.69,1.87],[-70.84,1.87],[-71,1.77],[-71.18,1.7],[-71.32,1.65],[-71.41,1.6],[-71.49,1.42],[-71.56,1.23],[-71.54,1.09],[-71.6,1.03],[-71.79,0.89],[-72.02,0.65],[-72.14,0.7],[-72.24,0.69],[-72.31,0.8],[-72.36,0.86],[-72.44,1],[-72.67,1.16],[-72.79,1.14],[-72.88,1.09],[-72.92,1],[-73.05,0.9],[-73.26,1],[-73.44,1.19],[-73.56,1.38],[-73.66,1.61],[-73.56,2.34],[-73.48,2.36],[-73.39,2.32],[-73.29,2.33],[-73.2,2.37],[-73.13,2.38],[-73,2.42],[-72.95,2.47],[-72.8,2.57],[-72.67,2.58],[-72.54,2.65],[-72.3,2.75],[-72.22,2.83],[-72,2.77],[-71.79,2.83],[-71.63,2.81],[-71.47,2.84],[-71.33,2.88],[-71.26,2.84]]]}},{"type":"Feature","properties":{"NOMBRE_DPT":"VAUPES","DPTO":"97"},"geometry":{"type":"Polygon","coordinates":[[[-70.11,1.99],[-70.18,1.85],[-69.97,1.7],[-69.72,1.05],[-69.37,1.04],[-69.2,0.86],[-69.15,0.62],[-69.31,0.59],[-69.52,0.68],[-69.68,0.61],[-69.87,0.54],[-70.06,-0.17],[-69.83,-0.41],[-69.6,-0.64],[-69.56,-0.88],[-69.45,-1.07],[-69.48,-1.22],[-69.64,-1.26],[-69.7,-1.09],[-69.77,-1.14],[-69.95,-1.13],[-69.93,-1],[-70.06,-1],[-70.11,-1.1],[-70.2,-1.02],[-70.24,-0.93],[-70.27,-0.69],[-70.22,-0.52],[-70.36,-0.5],[-70.47,-0.47],[-70.63,-0.37],[-70.82,-0.38],[-70.91,-0.25],[-70.92,-0.15],[-71.06,-0.06],[-71.17,0.01],[-71.32,0.04],[-71.41,0.15],[-71.5,0.13],[-71.6,0.17],[-71.71,0.23],[-71.8,0.32],[-71.85,0.39],[-71.95,0.52],[-72.01,0.58],[-71.9,0.77],[-71.69,0.95],[-71.57,1.11],[-71.53,1.16],[-71.5,1.38],[-71.42,1.54],[-71.34,1.66],[-71.19,1.69],[-71,1.77],[-70.82,1.88],[-70.67,1.87],[-70.47,1.94],[-70.31,1.97],[-70.14,2.03],[-70.11,1.99]]]}},{"type":"Feature","properties":{"NOMBRE_DPT":"VICHADA","DPTO":"99"},"geometry":{"type":"Polygon","coordinates":[[[-67.8,6.28],[-67.53,6.13],[-67.62,5.81],[-67.64,5.5],[-67.87,5.29],[-67.86,5.09],[-67.88,4.85],[-67.9,4.62],[-67.81,4.33],[-67.77,4.1],[-67.81,3.93],[-67.92,3.89],[-68.05,3.94],[-68.11,3.9],[-68.21,3.95],[-68.32,3.93],[-68.41,3.87],[-68.44,3.83],[-68.54,3.75],[-68.62,3.73],[-68.77,3.72],[-68.86,3.64],[-68.94,3.63],[-69.1,3.6],[-69.19,3.64],[-69.26,3.63],[-69.37,3.63],[-69.52,3.64],[-69.63,3.53],[-69.72,3.51],[-69.82,3.5],[-69.83,3.42],[-69.88,3.44],[-69.95,3.38],[-70.03,3.38],[-70.14,3.28],[-70.14,3.16],[-70.23,3.13],[-70.25,3],[-70.35,2.85],[-70.54,2.76],[-70.67,2.74],[-70.78,2.75],[-70.9,2.77],[-70.97,2.8],[-71.09,4.19],[-71.01,4.97],[-70.91,5.09],[-70.71,5.24],[-70.56,5.42],[-70.38,5.53],[-70.13,5.62],[-69.98,5.8],[-69.85,6],[-69.62,5.99],[-69.44,6.07],[-69.19,6.11],[-68.81,6.13],[-68.32,6.15],[-67.96,6.2],[-67.8,6.28]]]}},{"type":"Feature","properties":{"NOMBRE_DPT":"ARCHIPIELAGO DE SAN ANDRES PROVIDENCIA Y SANTA CATALINA","DPTO":"88"},"geometry":{"type":"MultiPolygon","coordinates":[[[[-81.71,12.59],[-81.71,12.6],[-81.7,12.6],[-81.7,12.59],[-81.69,12.59],[-81.69,12.58],[-81.7,12.58],[-81.71,12.58],[-81.7,12.57],[-81.71,12.57],[-81.71,12.58],[-81.71,12.57],[-81.71,12.58],[-81.71,12.57],[-81.7,12.57],[-81.71,12.57],[-81.71,12.56],[-81.71,12.55],[-81.71,12.54],[-81.71,12.53],[-81.72,12.53],[-81.72,12.52],[-81.72,12.51],[-81.72,12.5],[-81.72,12.49],[-81.73,12.49],[-81.73,12.48],[-81.74,12.48],[-81.74,12.49],[-81.74,12.5],[-81.73,12.5],[-81.73,12.51],[-81.73,12.52],[-81.73,12.53],[-81.74,12.53],[-81.74,12.54],[-81.74,12.55],[-81.73,12.55],[-81.74,12.55],[-81.74,12.56],[-81.73,12.56],[-81.73,12.57],[-81.73,12.58],[-81.72,12.58],[-81.72,12.59],[-81.71,12.59]]],[[[-81.37,13.39],[-81.38,13.39],[-81.38,13.38],[-81.38,13.39],[-81.38,13.4],[-81.37,13.4],[-81.37,13.39]]],[[[-81.37,13.39],[-81.37,13.38],[-81.36,13.38],[-81.36,13.37],[-81.36,13.36],[-81.35,13.36],[-81.36,13.36],[-81.36,13.35],[-81.36,13.34],[-81.37,13.34],[-81.37,13.33],[-81.38,13.33],[-81.39,13.33],[-81.39,13.32],[-81.39,13.33],[-81.4,13.33],[-81.39,13.33],[-81.4,13.33],[-81.39,13.33],[-81.39,13.34],[-81.4,13.34],[-81.4,13.35],[-81.4,13.36],[-81.39,13.36],[-81.4,13.36],[-81.39,13.36],[-81.39,13.37],[-81.38,13.37],[-81.37,13.37],[-81.37,13.38],[-81.37,13.39]]]]}}]}